[{"OBJECT_NAME":"STARLINK-5942","OBJECT_ID":"2023-042AE","EPOCH":"2024-02-06T21:43:31.582560","MEAN_MOTION":15.0254467,"ECCENTRICITY":0.0001215,"INCLINATION":43.0023,"RA_OF_ASC_NODE":222.8159,"ARG_OF_PERICENTER":277.5328,"MEAN_ANOMALY":82.5376,"EPHEMERIS_TYPE":0,"CLASSIFICATION_TYPE":"U","NORAD_CAT_ID":56014,"ELEMENT_SET_NO":999,"REV_AT_EPOCH":4880,"BSTAR":0.00010365,"MEAN_MOTION_DOT":1.197e-5,"MEAN_MOTION_DDOT":0},{"OBJECT_NAME":"STARLINK-5939","OBJECT_ID":"2023-042AF","EPOCH":"2024-02-05T15:31:04.605312","MEAN_MOTION":15.02711079,"ECCENTRICITY":0.0001453,"INCLINATION":43.0022,"RA_OF_ASC_NODE":229.7133,"ARG_OF_PERICENTER":281.249,"MEAN_ANOMALY":78.8189,"EPHEMERIS_TYPE":0,"CLASSIFICATION_TYPE":"U","NORAD_CAT_ID":56015,"ELEMENT_SET_NO":999,"REV_AT_EPOCH":4827,"BSTAR":-0.0024975,"MEAN_MOTION_DOT":-0.00033935,"MEAN_MOTION_DDOT":0},{"OBJECT_NAME":"STARLINK-5943","OBJECT_ID":"2023-042AG","EPOCH":"2024-02-06T21:19:33.299040","MEAN_MOTION":15.02540486,"ECCENTRICITY":0.0001134,"INCLINATION":43.0016,"RA_OF_ASC_NODE":222.6897,"ARG_OF_PERICENTER":277.1668,"MEAN_ANOMALY":82.9046,"EPHEMERIS_TYPE":0,"CLASSIFICATION_TYPE":"U","NORAD_CAT_ID":56016,"ELEMENT_SET_NO":999,"REV_AT_EPOCH":4846,"BSTAR":7.1576e-5,"MEAN_MOTION_DOT":7.64e-6,"MEAN_MOTION_DDOT":0},{"OBJECT_NAME":"STARLINK-5934","OBJECT_ID":"2023-042AH","EPOCH":"2024-02-06T21:35:31.852608","MEAN_MOTION":15.02543744,"ECCENTRICITY":0.0001073,"INCLINATION":43.0012,"RA_OF_ASC_NODE":222.7718,"ARG_OF_PERICENTER":279.3377,"MEAN_ANOMALY":80.7344,"EPHEMERIS_TYPE":0,"CLASSIFICATION_TYPE":"U","NORAD_CAT_ID":56017,"ELEMENT_SET_NO":999,"REV_AT_EPOCH":4880,"BSTAR":0.00010851,"MEAN_MOTION_DOT":1.263e-5,"MEAN_MOTION_DDOT":0},{"OBJECT_NAME":"STARLINK-5945","OBJECT_ID":"2023-042AJ","EPOCH":"2024-02-06T21:21:09.273888","MEAN_MOTION":15.0254074,"ECCENTRICITY":0.0001067,"INCLINATION":43.0023,"RA_OF_ASC_NODE":222.6999,"ARG_OF_PERICENTER":283.5377,"MEAN_ANOMALY":76.5347,"EPHEMERIS_TYPE":0,"CLASSIFICATION_TYPE":"U","NORAD_CAT_ID":56018,"ELEMENT_SET_NO":999,"REV_AT_EPOCH":4880,"BSTAR":0.00010484,"MEAN_MOTION_DOT":1.213e-5,"MEAN_MOTION_DDOT":0},{"OBJECT_NAME":"STARLINK-5949","OBJECT_ID":"2023-042AK","EPOCH":"2024-02-06T21:40:19.926624","MEAN_MOTION":15.02540142,"ECCENTRICITY":0.0001191,"INCLINATION":43.0012,"RA_OF_ASC_NODE":222.7974,"ARG_OF_PERICENTER":271.0838,"MEAN_ANOMALY":88.9867,"EPHEMERIS_TYPE":0,"CLASSIFICATION_TYPE":"U","NORAD_CAT_ID":56019,"ELEMENT_SET_NO":999,"REV_AT_EPOCH":4846,"BSTAR":5.2339e-5,"MEAN_MOTION_DOT":5.04e-6,"MEAN_MOTION_DDOT":0},{"OBJECT_NAME":"STARLINK-5912","OBJECT_ID":"2023-042AL","EPOCH":"2024-02-06T21:26:41.803296","MEAN_MOTION":15.03020641,"ECCENTRICITY":0.0001572,"INCLINATION":43.0024,"RA_OF_ASC_NODE":222.7283,"ARG_OF_PERICENTER":271.8912,"MEAN_ANOMALY":88.175,"EPHEMERIS_TYPE":0,"CLASSIFICATION_TYPE":"U","NORAD_CAT_ID":56020,"ELEMENT_SET_NO":999,"REV_AT_EPOCH":4846,"BSTAR":0.0040409,"MEAN_MOTION_DOT":0.00055528,"MEAN_MOTION_DDOT":0},{"OBJECT_NAME":"STARLINK-5907","OBJECT_ID":"2023-042AM","EPOCH":"2024-02-06T21:30:44.559648","MEAN_MOTION":15.02539626,"ECCENTRICITY":0.000128,"INCLINATION":43.0023,"RA_OF_ASC_NODE":222.7489,"ARG_OF_PERICENTER":272.6473,"MEAN_ANOMALY":87.4222,"EPHEMERIS_TYPE":0,"CLASSIFICATION_TYPE":"U","NORAD_CAT_ID":56021,"ELEMENT_SET_NO":999,"REV_AT_EPOCH":4846,"BSTAR":5.4459e-5,"MEAN_MOTION_DOT":5.32e-6,"MEAN_MOTION_DDOT":0},{"OBJECT_NAME":"STARLINK-5783","OBJECT_ID":"2023-042AN","EPOCH":"2024-02-06T22:42:29.444832","MEAN_MOTION":15.02544447,"ECCENTRICITY":0.0001277,"INCLINATION":43.0015,"RA_OF_ASC_NODE":222.2587,"ARG_OF_PERICENTER":281.8303,"MEAN_ANOMALY":78.2396,"EPHEMERIS_TYPE":0,"CLASSIFICATION_TYPE":"U","NORAD_CAT_ID":56022,"ELEMENT_SET_NO":999,"REV_AT_EPOCH":4881,"BSTAR":0.00010113,"MEAN_MOTION_DOT":1.163e-5,"MEAN_MOTION_DDOT":0},{"OBJECT_NAME":"STARLINK-5771","OBJECT_ID":"2023-042AP","EPOCH":"2024-02-06T22:50:29.349312","MEAN_MOTION":15.02542877,"ECCENTRICITY":0.0001076,"INCLINATION":43,"RA_OF_ASC_NODE":222.3047,"ARG_OF_PERICENTER":291.758,"MEAN_ANOMALY":68.3148,"EPHEMERIS_TYPE":0,"CLASSIFICATION_TYPE":"U","NORAD_CAT_ID":56023,"ELEMENT_SET_NO":999,"REV_AT_EPOCH":4881,"BSTAR":0.00017776,"MEAN_MOTION_DOT":2.199e-5,"MEAN_MOTION_DDOT":0},{"OBJECT_NAME":"STARLINK-5772","OBJECT_ID":"2023-042AQ","EPOCH":"2024-02-06T19:16:47.385408","MEAN_MOTION":15.02842085,"ECCENTRICITY":0.0001708,"INCLINATION":43.002,"RA_OF_ASC_NODE":222.9053,"ARG_OF_PERICENTER":304.1935,"MEAN_ANOMALY":55.8745,"EPHEMERIS_TYPE":0,"CLASSIFICATION_TYPE":"U","NORAD_CAT_ID":56024,"ELEMENT_SET_NO":999,"REV_AT_EPOCH":4879,"BSTAR":-0.003892,"MEAN_MOTION_DOT":-0.00052812,"MEAN_MOTION_DDOT":0},{"OBJECT_NAME":"STARLINK-5766","OBJECT_ID":"2023-042AR","EPOCH":"2024-02-06T15:31:48.327168","MEAN_MOTION":15.02540182,"ECCENTRICITY":0.0001605,"INCLINATION":43.0005,"RA_OF_ASC_NODE":224.3067,"ARG_OF_PERICENTER":273.5337,"MEAN_ANOMALY":86.5322,"EPHEMERIS_TYPE":0,"CLASSIFICATION_TYPE":"U","NORAD_CAT_ID":56025,"ELEMENT_SET_NO":999,"REV_AT_EPOCH":4842,"BSTAR":0.00019346,"MEAN_MOTION_DOT":2.411e-5,"MEAN_MOTION_DDOT":0},{"OBJECT_NAME":"STARLINK-5770","OBJECT_ID":"2023-042AS","EPOCH":"2024-02-06T19:26:14.775936","MEAN_MOTION":15.02550367,"ECCENTRICITY":0.0001682,"INCLINATION":43.0001,"RA_OF_ASC_NODE":222.9557,"ARG_OF_PERICENTER":277.5956,"MEAN_ANOMALY":82.4695,"EPHEMERIS_TYPE":0,"CLASSIFICATION_TYPE":"U","NORAD_CAT_ID":56026,"ELEMENT_SET_NO":999,"REV_AT_EPOCH":4845,"BSTAR":0.00019768,"MEAN_MOTION_DOT":2.469e-5,"MEAN_MOTION_DDOT":0},{"OBJECT_NAME":"STARLINK-5777","OBJECT_ID":"2023-042AT","EPOCH":"2024-02-06T21:09:58.173120","MEAN_MOTION":15.02536172,"ECCENTRICITY":0.0001096,"INCLINATION":43.001,"RA_OF_ASC_NODE":222.6352,"ARG_OF_PERICENTER":279.199,"MEAN_ANOMALY":80.8729,"EPHEMERIS_TYPE":0,"CLASSIFICATION_TYPE":"U","NORAD_CAT_ID":56027,"ELEMENT_SET_NO":999,"REV_AT_EPOCH":4880,"BSTAR":4.1804e-5,"MEAN_MOTION_DOT":3.61e-6,"MEAN_MOTION_DDOT":0},{"OBJECT_NAME":"STARLINK-5779","OBJECT_ID":"2023-042AU","EPOCH":"2024-02-06T15:58:48.335808","MEAN_MOTION":15.02542169,"ECCENTRICITY":0.000111,"INCLINATION":43.0019,"RA_OF_ASC_NODE":223.5935,"ARG_OF_PERICENTER":259.9801,"MEAN_ANOMALY":100.0916,"EPHEMERIS_TYPE":0,"CLASSIFICATION_TYPE":"U","NORAD_CAT_ID":56028,"ELEMENT_SET_NO":999,"REV_AT_EPOCH":4843,"BSTAR":7.733e-7,"MEAN_MOTION_DOT":-1.93e-6,"MEAN_MOTION_DDOT":0},{"OBJECT_NAME":"STARLINK-5774","OBJECT_ID":"2023-042AV","EPOCH":"2024-02-06T19:23:02.767488","MEAN_MOTION":15.02541319,"ECCENTRICITY":0.0001356,"INCLINATION":43.0017,"RA_OF_ASC_NODE":222.9365,"ARG_OF_PERICENTER":265.406,"MEAN_ANOMALY":94.6627,"EPHEMERIS_TYPE":0,"CLASSIFICATION_TYPE":"U","NORAD_CAT_ID":56029,"ELEMENT_SET_NO":999,"REV_AT_EPOCH":4845,"BSTAR":4.9012e-5,"MEAN_MOTION_DOT":4.59e-6,"MEAN_MOTION_DDOT":0},{"OBJECT_NAME":"STARLINK-5781","OBJECT_ID":"2023-042AW","EPOCH":"2024-02-06T20:41:13.703424","MEAN_MOTION":15.02514367,"ECCENTRICITY":0.0001449,"INCLINATION":43.0008,"RA_OF_ASC_NODE":222.4871,"ARG_OF_PERICENTER":260.0445,"MEAN_ANOMALY":100.0234,"EPHEMERIS_TYPE":0,"CLASSIFICATION_TYPE":"U","NORAD_CAT_ID":56030,"ELEMENT_SET_NO":999,"REV_AT_EPOCH":4846,"BSTAR":-0.00021673,"MEAN_MOTION_DOT":-3.128e-5,"MEAN_MOTION_DDOT":0}]
