STARLINK-5942           
1 56014U 23042AE  24037.90522665  .00001197  00000+0  10365-3 0  9993
2 56014  43.0023 222.8159 0001215 277.5328  82.5376 15.02544670 48807
STARLINK-5939           
1 56015U 23042AF  24036.64658108 -.00033935  00000+0 -24975-2 0  9994
2 56015  43.0022 229.7133 0001453 281.2490  78.8189 15.02711079 48271
STARLINK-5943           
1 56016U 23042AG  24037.88857985  .00000764  00000+0  71576-4 0  9999
2 56016  43.0016 222.6897 0001134 277.1668  82.9046 15.02540486 48462
STARLINK-5934           
1 56017U 23042AH  24037.89967422  .00001263  00000+0  10851-3 0  9992
2 56017  43.0012 222.7718 0001073 279.3377  80.7344 15.02543744 48800
STARLINK-5945           
1 56018U 23042AJ  24037.88969067  .00001213  00000+0  10484-3 0  9996
2 56018  43.0023 222.6999 0001067 283.5377  76.5347 15.02540740 48802
STARLINK-5949           
1 56019U 23042AK  24037.90300841  .00000504  00000+0  52339-4 0  9997
2 56019  43.0012 222.7974 0001191 271.0838  88.9867 15.02540142 48469
STARLINK-5912           
1 56020U 23042AL  24037.89353939  .00055528  00000+0  40409-2 0  9992
2 56020  43.0024 222.7283 0001572 271.8912  88.1750 15.03020641 48462
STARLINK-5907           
1 56021U 23042AM  24037.89634907  .00000532  00000+0  54459-4 0  9997
2 56021  43.0023 222.7489 0001280 272.6473  87.4222 15.02539626 48460
STARLINK-5783           
1 56022U 23042AN  24037.94617413  .00001163  00000+0  10113-3 0  9996
2 56022  43.0015 222.2587 0001277 281.8303  78.2396 15.02544447 48812
STARLINK-5771           
1 56023U 23042AP  24037.95172858  .00002199  00000+0  17776-3 0  9999
2 56023  43.0000 222.3047 0001076 291.7580  68.3148 15.02542877 48813
STARLINK-5772           
1 56024U 23042AQ  24037.80332622 -.00052812  00000+0 -38920-2 0  9993
2 56024  43.0020 222.9053 0001708 304.1935  55.8745 15.02842085 48799
STARLINK-5766           
1 56025U 23042AR  24037.64708712  .00002411  00000+0  19346-3 0  9993
2 56025  43.0005 224.3067 0001605 273.5337  86.5322 15.02540182 48420
STARLINK-5770           
1 56026U 23042AS  24037.80989324  .00002469  00000+0  19768-3 0  9993
2 56026  43.0001 222.9557 0001682 277.5956  82.4695 15.02550367 48458
STARLINK-5777           
1 56027U 23042AT  24037.88192330  .00000361  00000+0  41804-4 0  9991
2 56027  43.0010 222.6352 0001096 279.1990  80.8729 15.02536172 48801
STARLINK-5779           
1 56028U 23042AU  24037.66583722 -.00000193  00000+0  77330-6 0  9996
2 56028  43.0019 223.5935 0001110 259.9801 100.0916 15.02542169 48437
STARLINK-5774           
1 56029U 23042AV  24037.80767092  .00000459  00000+0  49012-4 0  9995
2 56029  43.0017 222.9365 0001356 265.4060  94.6627 15.02541319 48452
STARLINK-5781           
1 56030U 23042AW  24037.86196416 -.00003128  00000+0 -21673-3 0  9999
2 56030  43.0008 222.4871 0001449 260.0445 100.0234 15.02514367 48462
